NORAD_CAT_ID,OBJECT_NAME,OBJECT_TYPE,EPOCH,MEAN_MOTION,ECCENTRICITY,INCLINATION,RA_OF_ASC_NODE,ARG_OF_PERICENTER,MEAN_ANOMALY,BSTAR,MEAN_MOTION_DOT,MEAN_MOTION_DDOT,TLE_LINE0,TLE_LINE1,TLE_LINE2,SEMIMAJOR_AXIS,PERIOD,APOGEE,PERIGEE,DECAYED
50192.0,STARLINK-3259,PAYLOAD,2022-12-17 16:28:35,15.08829186,0.000306,53.2191,127.3937,57.5062,302.6226,-6.9031e-05,-1.387e-05,0.0,0 STARLINK-3259,1 50192U 21125AN  22351.68652776 -.00001387  00000-0 -69031-4 0  9992,2 50192  53.2191 127.3937 0003060  57.5062 302.6226 15.08829186 55803,6917.913000000001,95.438,541.895,537.6619999999998,0.0
50192.0,STARLINK-3259,PAYLOAD,2022-12-17 19:39:22,15.0882982,0.0003069,53.2191,126.7989,57.2301,302.8986,-6.1528e-05,-1.268e-05,0.0,0 STARLINK-3259,1 50192U 21125AN  22351.81900836 -.00001268  00000-0 -61528-4 0  9991,2 50192  53.2191 126.7989 0003069  57.2301 302.8986 15.08829820 58910,6917.9119999999975,95.438,541.9,537.653,0.0
50192.0,STARLINK-3259,PAYLOAD,2022-12-18 02:00:54,15.08836364,0.0003128,53.2183,125.6083,53.8027,306.3254,-2.8562e-05,-7.43e-06,0.0,0 STARLINK-3259,1 50192U 21125AN  22352.08396403 -.00000743  00000-0 -28562-4 0  9998,2 50192  53.2183 125.6083 0003128  53.8027 306.3254 15.08836364 55866,6917.892,95.438,541.92,537.5930000000002,0.0
50192.0,STARLINK-3259,PAYLOAD,2022-12-18 16:19:22,15.08837925,0.0002998,53.2183,122.9307,50.6929,309.4328,4.8067e-05,4.76e-06,0.0,0 STARLINK-3259,1 50192U 21125AN  22352.68012252  .00000476  00000-0  48067-4 0  9994,2 50192  53.2183 122.9307 0002998  50.6929 309.4328 15.08837925 59049,6917.887,95.438,541.826,537.678,0.0
50192.0,STARLINK-3259,PAYLOAD,2022-12-19 08:13:14,15.08836398,0.0003056,53.2186,119.9574,53.3179,306.8094,0.00010619,1.402e-05,0.0,0 STARLINK-3259,1 50192U 21125AN  22353.34252582  .00001402  00000-0  10619-3 0  9991,2 50192  53.2186 119.9574 0003056  53.3179 306.8094 15.08836398 56059,6917.891,95.438,541.871,537.6419999999998,0.0
50192.0,STARLINK-3259,PAYLOAD,2022-12-19 16:10:09,15.08847813,0.0002953,53.2178,118.4711,50.9648,309.1607,0.00026766,3.975e-05,0.0,0 STARLINK-3259,1 50192U 21125AN  22353.67371694  .00003975  00000-0  26766-3 0  9990,2 50192  53.2178 118.4711 0002953  50.9648 309.1607 15.08847813 59194,6917.857,95.437,541.764,537.679,0.0
50192.0,STARLINK-3259,PAYLOAD,2022-12-19 20:56:18,15.08856805,0.0002955,53.2167,117.5783,50.1874,309.9377,0.00040148,6.11e-05,0.0,0 STARLINK-3259,1 50192U 21125AN  22353.87243460  .00006110  00000-0  40148-3 0  9995,2 50192  53.2167 117.5783 0002955  50.1874 309.9377 15.08856805 56130,6917.829000000002,95.436,541.738,537.65,0.0
50192.0,STARLINK-3259,PAYLOAD,2022-12-20 14:25:32,15.08855314,0.0003107,53.2176,114.3057,53.7368,306.3911,0.00023154,3.4e-05,0.0,0 STARLINK-3259,1 50192U 21125AN  22354.60107207  .00003400  00000-0  23154-3 0  9992,2 50192  53.2176 114.3057 0003107  53.7368 306.3911 15.08855314 56247,6917.834,95.437,541.8480000000002,537.549,0.0
50192.0,STARLINK-3259,PAYLOAD,2022-12-21 12:40:57,15.08836326,0.000287,53.2169,110.1438,55.0616,305.0645,-7.2937e-05,-1.449e-05,0.0,0 STARLINK-3259,1 50192U 21125AN  22355.52844122 -.00001449  00000-0 -72937-4 0  9995,2 50192  53.2169 110.1438 0002870  55.0616 305.0645 15.08836326 56380,6917.892,95.438,541.742,537.771,0.0
50192.0,STARLINK-3259,PAYLOAD,2022-12-22 10:56:21,15.08835753,0.0002713,53.2171,105.9816,48.6103,311.5123,3.4404e-05,2.59e-06,0.0,0 STARLINK-3259,1 50192U 21125AN  22356.45580376  .00000259  00000-0  34404-4 0  9999,2 50192  53.2171 105.9816 0002713  48.6103 311.5123 15.08835753 59615,6917.893,95.438,541.635,537.882,0.0
50192.0,STARLINK-3259,PAYLOAD,2022-12-22 14:07:07,15.08837052,0.0002809,53.2174,105.3875,48.0327,312.0904,4.9314e-05,4.96e-06,0.0,0 STARLINK-3259,1 50192U 21125AN  22356.58828399  .00000496  00000-0  49314-4 0  9992,2 50192  53.2174 105.3875 0002809  48.0327 312.0904 15.08837052 56541,6917.889,95.438,541.698,537.811,0.0
50192.0,STARLINK-3259,PAYLOAD,2022-12-22 18:53:17,15.08835296,0.0002756,53.2173,104.4955,48.2016,311.9211,0.00025268,3.735e-05,0.0,0 STARLINK-3259,1 50192U 21125AN  22356.78700700  .00003735  00000-0  25268-3 0  9999,2 50192  53.2173 104.4955 0002756  48.2016 311.9211 15.08835296 59660,6917.895,95.438,541.6659999999998,537.8530000000002,0.0
50192.0,STARLINK-3259,PAYLOAD,2022-12-23 09:11:45,15.08837805,0.0002751,53.2171,101.8189,44.1618,315.9593,0.00020886,3.037e-05,0.0,0 STARLINK-3259,1 50192U 21125AN  22357.38316766  .00003037  00000-0  20886-3 0  9997,2 50192  53.2171 101.8189 0002751  44.1618 315.9593 15.08837805 59751,6917.887,95.438,541.655,537.849,0.0
50192.0,STARLINK-3259,PAYLOAD,2022-12-23 13:57:55,15.08828211,0.0002712,53.2174,100.927,43.6659,316.4547,5.4163e-05,5.73e-06,0.0,0 STARLINK-3259,1 50192U 21125AN  22357.58189393  .00000573  00000-0  54163-4 0  9991,2 50192  53.2174 100.9270 0002712  43.6659 316.4547 15.08828211 56697,6917.916,95.438,541.658,537.905,0.0
50192.0,STARLINK-3259,PAYLOAD,2022-12-24 05:51:46,15.08843996,0.0002693,53.2176,97.9534,43.1679,316.9524,0.00027732,4.129e-05,0.0,0 STARLINK-3259,1 50192U 21125AN  22358.24429004  .00004129  00000-0  27732-3 0  9993,2 50192  53.2176  97.9534 0002693  43.1679 316.9524 15.08843996 56790,6917.868,95.437,541.596,537.87,0.0
50192.0,STARLINK-3259,PAYLOAD,2022-12-24 09:02:32,15.08850473,0.0002751,53.2175,97.3588,42.959,317.1617,0.00045729,6.999e-05,0.0,0 STARLINK-3259,1 50192U 21125AN  22358.37676878  .00006999  00000-0  45729-3 0  9993,2 50192  53.2175  97.3588 0002751  42.9590 317.1617 15.08850473 59906,6917.848000000001,95.437,541.616,537.81,0.0
50192.0,STARLINK-3259,PAYLOAD,2022-12-24 13:48:42,15.08856579,0.0002691,53.2177,96.4667,42.5802,317.5398,0.00066611,0.00010334,0.0,0 STARLINK-3259,1 50192U 21125AN  22358.57548706  .00010334  00000-0  66611-3 0  9994,2 50192  53.2177  96.4667 0002691  42.5802 317.5398 15.08856579 56844,6917.83,95.437,541.556,537.8330000000002,0.0
50192.0,STARLINK-3259,PAYLOAD,2022-12-25 05:42:33,15.08834463,0.0002644,53.2177,93.4938,42.8693,317.2505,2.5576e-05,1.19e-06,0.0,0 STARLINK-3259,1 50192U 21125AN  22359.23789232  .00000119  00000-0  25576-4 0  9995,2 50192  53.2177  93.4938 0002644  42.8693 317.2505 15.08834463 56947,6917.897,95.438,541.591,537.933,0.0
50192.0,STARLINK-3259,PAYLOAD,2022-12-25 08:53:20,15.08834055,0.0002603,53.2182,92.8988,41.6483,318.4707,2.3664e-05,8.8e-07,0.0,0 STARLINK-3259,1 50192U 21125AN  22359.37037557  .00000088  00000-0  23664-4 0  9997,2 50192  53.2182  92.8988 0002603  41.6483 318.4707 15.08834055 60051,6917.899,95.438,541.564,537.9630000000002,0.0
50192.0,STARLINK-3259,PAYLOAD,2022-12-25 13:39:29,15.08838688,0.0002608,53.2182,92.0068,41.5486,318.5704,5.5934e-05,6.02e-06,0.0,0 STARLINK-3259,1 50192U 21125AN  22359.56909178  .00000602  00000-0  55934-4 0  9992,2 50192  53.2182  92.0068 0002608  41.5486 318.5704 15.08838688 60086,6917.884,95.438,541.554,537.945,0.0
50192.0,STARLINK-3259,PAYLOAD,2022-12-25 23:11:49,15.08818118,0.0002546,53.2184,90.2233,41.2601,318.8583,8.6902e-05,1.094e-05,0.0,0 STARLINK-3259,1 50192U 21125AN  22359.96654653  .00001094  00000-0  86902-4 0  9996,2 50192  53.2184  90.2233 0002546  41.2601 318.8583 15.08818118 57056,6917.946999999999,95.439,541.5740000000002,538.0509999999998,0.0
50192.0,STARLINK-3259,PAYLOAD,2022-12-26 15:05:40,15.08840732,0.0002454,53.2184,87.2488,36.3657,323.7502,-2.2583e-06,-3.24e-06,0.0,0 STARLINK-3259,1 50192U 21125AN  22360.62893533 -.00000324  00000-0 -22583-5 0  9996,2 50192  53.2184  87.2488 0002454  36.3657 323.7502 15.08840732 57152,6917.878000000002,95.438,541.441,538.0459999999998,0.0
50192.0,STARLINK-3259,PAYLOAD,2022-12-27 11:45:39,15.08852211,0.00025,53.2184,83.3831,38.2876,321.8293,0.00025884,3.835e-05,0.0,0 STARLINK-3259,1 50192U 21125AN  22361.49004369  .00003835  00000-0  25884-3 0  9996,2 50192  53.2184  83.3831 0002500  38.2876 321.8293 15.08852211 57282,6917.843000000003,95.437,541.438,537.979,0.0
50192.0,STARLINK-3259,PAYLOAD,2022-12-28 08:25:40,15.08855693,0.0002615,53.2167,79.5167,38.1079,322.0097,0.00023445,3.447e-05,0.0,0 STARLINK-3259,1 50192U 21125AN  22362.35116101  .00003447  00000-0  23445-3 0  9990,2 50192  53.2167  79.5167 0002615  38.1079 322.0097 15.08855693 60504,6917.831999999999,95.437,541.506,537.888,0.0
50192.0,STARLINK-3259,PAYLOAD,2022-12-29 11:27:15,15.08828801,0.0002686,53.2182,74.4636,36.7356,323.382,-0.00018376,-3.211e-05,0.0,0 STARLINK-3259,1 50192U 21125AN  22363.47725851 -.00003211  00000-0 -18376-3 0  9990,2 50192  53.2182  74.4636 0002686  36.7356 323.3820 15.08828801 57589,6917.915,95.438,541.638,537.9209999999998,0.0
50192.0,STARLINK-3259,PAYLOAD,2022-12-30 04:56:29,15.08836832,0.0002171,53.2167,71.1877,40.0839,320.0313,0.00014902,2.084e-05,0.0,0 STARLINK-3259,1 50192U 21125AN  22364.20589843  .00002084  00000-0  14902-3 0  9997,2 50192  53.2167  71.1877 0002171  40.0839 320.0313 15.08836832 57692,6917.89,95.438,541.257,538.253,0.0
50192.0,STARLINK-3259,PAYLOAD,2022-12-30 11:18:02,15.08849902,0.0002646,53.2172,70.0019,34.9949,325.1216,0.00060249,9.316e-05,0.0,0 STARLINK-3259,1 50192U 21125AN  22364.47085839  .00009316  00000-0  60249-3 0  9992,2 50192  53.2172  70.0019 0002646  34.9949 325.1216 15.08849902 60824,6917.85,95.437,541.5459999999998,537.885,0.0
50192.0,STARLINK-3259,PAYLOAD,2022-12-30 14:28:48,15.08854693,0.0002726999999999,53.2169,69.407,36.8076,323.3103,0.00083988,0.0001311,0.0,0 STARLINK-3259,1 50192U 21125AN  22364.60333909  .00013110  00000-0  83988-3 0  9993,2 50192  53.2169  69.4070 0002727  36.8076 323.3103 15.08854693 57757,6917.835,95.437,541.587,537.814,0.0
50192.0,STARLINK-3259,PAYLOAD,2022-12-31 04:47:15,15.08885983,0.0002744,53.2177,66.7309,35.1501,324.9672,0.0012109,0.00019061,0.0,0 STARLINK-3259,1 50192U 21125AN  22365.19948455  .00019061  00000-0  12109-2 0  9993,2 50192  53.2177  66.7309 0002744  35.1501 324.9672 15.08885983 57849,6917.74,95.435,541.503,537.707,0.0
